[{"OBJECT_NAME":"ECHOSTAR 25","OBJECT_ID":"2026-045A","EPOCH":"2026-03-28T16:46:26.885856","MEAN_MOTION":1.00272343,"ECCENTRICITY":0.0002358,"INCLINATION":0.0536,"RA_OF_ASC_NODE":281.8242,"ARG_OF_PERICENTER":107.4043,"MEAN_ANOMALY":279.5835,"EPHEMERIS_TYPE":0,"CLASSIFICATION_TYPE":"U","NORAD_CAT_ID":68126,"ELEMENT_SET_NO":999,"REV_AT_EPOCH":18,"BSTAR":0,"MEAN_MOTION_DOT":3.9e-7,"MEAN_MOTION_DDOT":0},{"OBJECT_NAME":"ICOR SV","OBJECT_ID":"2026-046A","EPOCH":"2026-03-28T12:19:58.399968","MEAN_MOTION":15.93773105,"ECCENTRICITY":0.01050737,"INCLINATION":123.0769,"RA_OF_ASC_NODE":291.4837,"ARG_OF_PERICENTER":220.5917,"MEAN_ANOMALY":138.7286,"EPHEMERIS_TYPE":0,"CLASSIFICATION_TYPE":"U","NORAD_CAT_ID":68127,"ELEMENT_SET_NO":999,"REV_AT_EPOCH":259,"BSTAR":0.0006869443,"MEAN_MOTION_DOT":0.00443451,"MEAN_MOTION_DDOT":8.9273789e-5},{"OBJECT_NAME":"FIREFLY ALPHA R/B","OBJECT_ID":"2026-046B","EPOCH":"2026-03-28T12:25:30.742752","MEAN_MOTION":15.57205945,"ECCENTRICITY":0.00161335,"INCLINATION":123.0943,"RA_OF_ASC_NODE":288.1046,"ARG_OF_PERICENTER":17.9669,"MEAN_ANOMALY":342.1959,"EPHEMERIS_TYPE":0,"CLASSIFICATION_TYPE":"U","NORAD_CAT_ID":68128,"ELEMENT_SET_NO":999,"REV_AT_EPOCH":257,"BSTAR":0.00059261068,"MEAN_MOTION_DOT":0.0004384,"MEAN_MOTION_DDOT":0},{"OBJECT_NAME":"GUOWANG GROUP 20 OBJECT A","OBJECT_ID":"2026-047A","EPOCH":"2026-03-27T07:56:57.542784","MEAN_MOTION":13.95700641,"ECCENTRICITY":0.0003228,"INCLINATION":50.0018,"RA_OF_ASC_NODE":358.7253,"ARG_OF_PERICENTER":358.1957,"MEAN_ANOMALY":1.8932,"EPHEMERIS_TYPE":0,"CLASSIFICATION_TYPE":"U","NORAD_CAT_ID":68129,"ELEMENT_SET_NO":999,"REV_AT_EPOCH":204,"BSTAR":3.0515e-5,"MEAN_MOTION_DOT":-1.06e-6,"MEAN_MOTION_DDOT":0},{"OBJECT_NAME":"GUOWANG GROUP 20 OBJECT B","OBJECT_ID":"2026-047B","EPOCH":"2026-03-26T18:09:03.081024","MEAN_MOTION":13.9659141,"ECCENTRICITY":4.28e-5,"INCLINATION":50.0066,"RA_OF_ASC_NODE":1.0171,"ARG_OF_PERICENTER":307.3036,"MEAN_ANOMALY":52.7826,"EPHEMERIS_TYPE":0,"CLASSIFICATION_TYPE":"U","NORAD_CAT_ID":68130,"ELEMENT_SET_NO":999,"REV_AT_EPOCH":195,"BSTAR":5.5036e-5,"MEAN_MOTION_DOT":-7.2e-7,"MEAN_MOTION_DDOT":0},{"OBJECT_NAME":"GUOWANG GROUP 20 OBJECT C","OBJECT_ID":"2026-047C","EPOCH":"2026-03-26T19:49:39.748800","MEAN_MOTION":13.9686269,"ECCENTRICITY":4.8e-6,"INCLINATION":49.9996,"RA_OF_ASC_NODE":0.7054,"ARG_OF_PERICENTER":49.5998,"MEAN_ANOMALY":310.4907,"EPHEMERIS_TYPE":0,"CLASSIFICATION_TYPE":"U","NORAD_CAT_ID":68131,"ELEMENT_SET_NO":999,"REV_AT_EPOCH":197,"BSTAR":2.709e-5,"MEAN_MOTION_DOT":-1.11e-6,"MEAN_MOTION_DDOT":0},{"OBJECT_NAME":"GUOWANG GROUP 20 OBJECT D","OBJECT_ID":"2026-047D","EPOCH":"2026-03-24T19:43:51.842784","MEAN_MOTION":14.00513037,"ECCENTRICITY":0.00024162,"INCLINATION":50.0048,"RA_OF_ASC_NODE":8.7665,"ARG_OF_PERICENTER":7.3102,"MEAN_ANOMALY":352.7836,"EPHEMERIS_TYPE":0,"CLASSIFICATION_TYPE":"U","NORAD_CAT_ID":68132,"ELEMENT_SET_NO":999,"REV_AT_EPOCH":168,"BSTAR":3.2408862e-5,"MEAN_MOTION_DOT":-1.02e-6,"MEAN_MOTION_DDOT":0},{"OBJECT_NAME":"GUOWANG GROUP 20 OBJECT E","OBJECT_ID":"2026-047E","EPOCH":"2026-03-24T07:42:54.851616","MEAN_MOTION":14.01339008,"ECCENTRICITY":0.00032302,"INCLINATION":49.9979,"RA_OF_ASC_NODE":10.8404,"ARG_OF_PERICENTER":188.5214,"MEAN_ANOMALY":171.5635,"EPHEMERIS_TYPE":0,"CLASSIFICATION_TYPE":"U","NORAD_CAT_ID":68133,"ELEMENT_SET_NO":999,"REV_AT_EPOCH":162,"BSTAR":1.5966081e-5,"MEAN_MOTION_DOT":-1.26e-6,"MEAN_MOTION_DDOT":0},{"OBJECT_NAME":"GUOWANG GROUP 20 OBJECT F","OBJECT_ID":"2026-047F","EPOCH":"2026-03-24T02:31:27.101856","MEAN_MOTION":14.01903676,"ECCENTRICITY":4.752e-5,"INCLINATION":50.0123,"RA_OF_ASC_NODE":11.6502,"ARG_OF_PERICENTER":222.9253,"MEAN_ANOMALY":137.1614,"EPHEMERIS_TYPE":0,"CLASSIFICATION_TYPE":"U","NORAD_CAT_ID":68134,"ELEMENT_SET_NO":999,"REV_AT_EPOCH":158,"BSTAR":7.7668349e-5,"MEAN_MOTION_DOT":-3.2e-7,"MEAN_MOTION_DDOT":0},{"OBJECT_NAME":"GUOWANG GROUP 20 OBJECT G","OBJECT_ID":"2026-047G","EPOCH":"2026-03-26T17:51:49.939200","MEAN_MOTION":14.01583953,"ECCENTRICITY":0.00048065,"INCLINATION":50.0409,"RA_OF_ASC_NODE":0.8903,"ARG_OF_PERICENTER":213.0056,"MEAN_ANOMALY":147.0548,"EPHEMERIS_TYPE":0,"CLASSIFICATION_TYPE":"U","NORAD_CAT_ID":68135,"ELEMENT_SET_NO":999,"REV_AT_EPOCH":196,"BSTAR":0.00011069373,"MEAN_MOTION_DOT":1.8e-7,"MEAN_MOTION_DDOT":0},{"OBJECT_NAME":"GUOWANG GROUP 20 OBJECT H","OBJECT_ID":"2026-047H","EPOCH":"2026-03-25T00:46:09.563232","MEAN_MOTION":14.01074305,"ECCENTRICITY":0.0014532,"INCLINATION":49.953,"RA_OF_ASC_NODE":7.8688,"ARG_OF_PERICENTER":103.7924,"MEAN_ANOMALY":256.4596,"EPHEMERIS_TYPE":0,"CLASSIFICATION_TYPE":"U","NORAD_CAT_ID":68136,"ELEMENT_SET_NO":999,"REV_AT_EPOCH":171,"BSTAR":3.3918e-5,"MEAN_MOTION_DOT":-9.9e-7,"MEAN_MOTION_DDOT":0},{"OBJECT_NAME":"GUOWANG GROUP 20 OBJECT J","OBJECT_ID":"2026-047J","EPOCH":"2026-03-23T21:21:21.697344","MEAN_MOTION":14.02259904,"ECCENTRICITY":1.75e-5,"INCLINATION":50.0081,"RA_OF_ASC_NODE":12.5219,"ARG_OF_PERICENTER":124.6965,"MEAN_ANOMALY":235.3956,"EPHEMERIS_TYPE":0,"CLASSIFICATION_TYPE":"U","NORAD_CAT_ID":68137,"ELEMENT_SET_NO":999,"REV_AT_EPOCH":156,"BSTAR":9.1454e-6,"MEAN_MOTION_DOT":-1.37e-6,"MEAN_MOTION_DDOT":0},{"OBJECT_NAME":"CZ-8A R/B","OBJECT_ID":"2026-047K","EPOCH":"2026-03-28T13:55:15.353184","MEAN_MOTION":14.12232066,"ECCENTRICITY":0.00447546,"INCLINATION":49.9539,"RA_OF_ASC_NODE":352.5603,"ARG_OF_PERICENTER":203.2078,"MEAN_ANOMALY":156.6809,"EPHEMERIS_TYPE":0,"CLASSIFICATION_TYPE":"U","NORAD_CAT_ID":68138,"ELEMENT_SET_NO":999,"REV_AT_EPOCH":222,"BSTAR":2.7759397e-5,"MEAN_MOTION_DOT":-1.03e-6,"MEAN_MOTION_DDOT":0},{"OBJECT_NAME":"SHIYAN-30 03","OBJECT_ID":"2026-048A","EPOCH":"2026-03-28T13:54:22.603392","MEAN_MOTION":14.91722014,"ECCENTRICITY":0.00032285,"INCLINATION":35.0012,"RA_OF_ASC_NODE":30.8539,"ARG_OF_PERICENTER":356.2337,"MEAN_ANOMALY":3.8344,"EPHEMERIS_TYPE":0,"CLASSIFICATION_TYPE":"U","NORAD_CAT_ID":68139,"ELEMENT_SET_NO":999,"REV_AT_EPOCH":232,"BSTAR":0.0002812851,"MEAN_MOTION_DOT":2.859e-5,"MEAN_MOTION_DDOT":0},{"OBJECT_NAME":"SHIYAN-30 04","OBJECT_ID":"2026-048B","EPOCH":"2026-03-28T12:19:01.396704","MEAN_MOTION":14.91730334,"ECCENTRICITY":0.00017437,"INCLINATION":34.9927,"RA_OF_ASC_NODE":31.2568,"ARG_OF_PERICENTER":351.4832,"MEAN_ANOMALY":8.5843,"EPHEMERIS_TYPE":0,"CLASSIFICATION_TYPE":"U","NORAD_CAT_ID":68140,"ELEMENT_SET_NO":999,"REV_AT_EPOCH":231,"BSTAR":0.00026892942,"MEAN_MOTION_DOT":2.733e-5,"MEAN_MOTION_DDOT":0},{"OBJECT_NAME":"CZ-2D R/B","OBJECT_ID":"2026-048C","EPOCH":"2026-03-28T13:01:05.251296","MEAN_MOTION":14.9556023,"ECCENTRICITY":0.00150587,"INCLINATION":35.1306,"RA_OF_ASC_NODE":30.8691,"ARG_OF_PERICENTER":131.6886,"MEAN_ANOMALY":228.5113,"EPHEMERIS_TYPE":0,"CLASSIFICATION_TYPE":"U","NORAD_CAT_ID":68141,"ELEMENT_SET_NO":999,"REV_AT_EPOCH":232,"BSTAR":0.00014905625,"MEAN_MOTION_DOT":1.657e-5,"MEAN_MOTION_DDOT":0},{"OBJECT_NAME":"STARLINK-36604","OBJECT_ID":"2026-049A","EPOCH":"2026-03-28T14:13:55.441920","MEAN_MOTION":15.80876813,"ECCENTRICITY":0.00011827,"INCLINATION":97.2841,"RA_OF_ASC_NODE":107.7653,"ARG_OF_PERICENTER":104.3505,"MEAN_ANOMALY":255.7895,"EPHEMERIS_TYPE":0,"CLASSIFICATION_TYPE":"U","NORAD_CAT_ID":68142,"ELEMENT_SET_NO":999,"REV_AT_EPOCH":239,"BSTAR":0.00078858359,"MEAN_MOTION_DOT":0.00154031,"MEAN_MOTION_DDOT":0},{"OBJECT_NAME":"STARLINK-36995","OBJECT_ID":"2026-049B","EPOCH":"2026-03-28T14:12:50.567616","MEAN_MOTION":15.80857269,"ECCENTRICITY":0.0001162,"INCLINATION":97.2843,"RA_OF_ASC_NODE":107.7659,"ARG_OF_PERICENTER":71.331,"MEAN_ANOMALY":288.8085,"EPHEMERIS_TYPE":0,"CLASSIFICATION_TYPE":"U","NORAD_CAT_ID":68143,"ELEMENT_SET_NO":999,"REV_AT_EPOCH":239,"BSTAR":0.00050461081,"MEAN_MOTION_DOT":0.00097788,"MEAN_MOTION_DDOT":0},{"OBJECT_NAME":"STARLINK-37020","OBJECT_ID":"2026-049C","EPOCH":"2026-03-28T12:39:31.362912","MEAN_MOTION":15.80883846,"ECCENTRICITY":9.895e-5,"INCLINATION":97.2834,"RA_OF_ASC_NODE":107.7012,"ARG_OF_PERICENTER":132.9457,"MEAN_ANOMALY":227.1894,"EPHEMERIS_TYPE":0,"CLASSIFICATION_TYPE":"U","NORAD_CAT_ID":68144,"ELEMENT_SET_NO":999,"REV_AT_EPOCH":238,"BSTAR":0.00098066087,"MEAN_MOTION_DOT":0.00192498,"MEAN_MOTION_DDOT":0},{"OBJECT_NAME":"STARLINK-36244","OBJECT_ID":"2026-049D","EPOCH":"2026-03-28T14:00:01.999872","MEAN_MOTION":15.75180097,"ECCENTRICITY":0.00012273,"INCLINATION":97.2845,"RA_OF_ASC_NODE":107.7524,"ARG_OF_PERICENTER":99.9787,"MEAN_ANOMALY":203.6915,"EPHEMERIS_TYPE":0,"CLASSIFICATION_TYPE":"U","NORAD_CAT_ID":68145,"ELEMENT_SET_NO":999,"REV_AT_EPOCH":366,"BSTAR":2.1339633e-5,"MEAN_MOTION_DOT":3.053e-5,"MEAN_MOTION_DDOT":0},{"OBJECT_NAME":"STARLINK-36980","OBJECT_ID":"2026-049E","EPOCH":"2026-03-28T14:09:35.764128","MEAN_MOTION":15.80867354,"ECCENTRICITY":0.00012703,"INCLINATION":97.2841,"RA_OF_ASC_NODE":107.7688,"ARG_OF_PERICENTER":81.0857,"MEAN_ANOMALY":279.0555,"EPHEMERIS_TYPE":0,"CLASSIFICATION_TYPE":"U","NORAD_CAT_ID":68146,"ELEMENT_SET_NO":999,"REV_AT_EPOCH":239,"BSTAR":0.00072552575,"MEAN_MOTION_DOT":0.00141436,"MEAN_MOTION_DDOT":0},{"OBJECT_NAME":"STARLINK-37055","OBJECT_ID":"2026-049F","EPOCH":"2026-03-28T14:11:45.503232","MEAN_MOTION":15.80873216,"ECCENTRICITY":0.00011118,"INCLINATION":97.2841,"RA_OF_ASC_NODE":107.7667,"ARG_OF_PERICENTER":85.5721,"MEAN_ANOMALY":274.5675,"EPHEMERIS_TYPE":0,"CLASSIFICATION_TYPE":"U","NORAD_CAT_ID":68147,"ELEMENT_SET_NO":999,"REV_AT_EPOCH":239,"BSTAR":0.00066544419,"MEAN_MOTION_DOT":0.00129569,"MEAN_MOTION_DDOT":0},{"OBJECT_NAME":"STARLINK-36981","OBJECT_ID":"2026-049G","EPOCH":"2026-03-28T14:07:25.949856","MEAN_MOTION":15.80895604,"ECCENTRICITY":0.00014004,"INCLINATION":97.2837,"RA_OF_ASC_NODE":107.7707,"ARG_OF_PERICENTER":100.5484,"MEAN_ANOMALY":259.5942,"EPHEMERIS_TYPE":0,"CLASSIFICATION_TYPE":"U","NORAD_CAT_ID":68148,"ELEMENT_SET_NO":999,"REV_AT_EPOCH":239,"BSTAR":0.0011597986,"MEAN_MOTION_DOT":0.00228768,"MEAN_MOTION_DDOT":0}]
